STARLINK-3630           
1 51796U 22017AE  22066.91667824  .00085231  00000+0  60464-3 0  9990
2 51796  53.2184  92.7273 0001248  55.2488 191.5102 15.73235315  2107
STARLINK-3627           
1 51797U 22017AF  22067.16667824  .00037575  00000+0  27031-3 0  9990
2 51797  53.2205  91.4984 0001236  56.6246 162.9323 15.73255326  2933
STARLINK-3634           
1 51798U 22017AG  22067.16667824  .00045950  00000+0  32901-3 0  9999
2 51798  53.2188  91.4897 0001219  48.2702 175.8207 15.73272163  2934
STARLINK-3637           
1 51799U 22017AH  22067.16667824  .00017405  00000+0  12773-3 0  9999
2 51799  53.2185  91.4931 0001804  61.3355 160.8540 15.73281291  2881
STARLINK-3600           
1 51800U 22017AJ  22066.91667824 -.00022063  00000+0 -15305-3 0  9996
2 51800  53.2186  92.7233 0001154  62.5450 186.3858 15.73222739  2103
STARLINK-3592           
1 51801U 22017AK  22066.91667824  .00072516  00000+0  51597-3 0  9996
2 51801  53.2203  92.7282 0001775  70.4906 175.6904 15.73230234  2103
STARLINK-3557           
1 51802U 22017AL  22067.16667824 -.00111057  00000+0 -79452-3 0  9991
2 51802  53.2204  91.4845 0001337  65.9060 160.9993 15.73282741  2880
STARLINK-3544           
1 51803U 22017AM  22067.16667824 -.00024340  00000+0 -16955-3 0  9999
2 51803  53.2207  91.4876 0001449  60.2064 164.7858 15.73194055  2886
STARLINK-3601           
1 51804U 22017AN  22066.91667824  .00094846  00000+0  67360-3 0  9994
2 51804  53.2229  92.7002 0001302  44.0971 216.3410 15.73165316  2113
STARLINK-3605           
1 51805U 22017AP  22066.91667824 -.00014365  00000+0 -98041-4 0  9996
2 51805  53.2203  92.7217 0001296  50.2957 199.2526 15.73215039  2103
STARLINK-3581           
1 51806U 22017AQ  22067.16667824 -.00013426  00000+0 -91397-4 0  9999
2 51806  53.2198  91.4793 0001539  58.7169 170.7228 15.73198104  2881
STARLINK-3606           
1 51807U 22017AR  22066.91667824 -.00043520  00000+0 -30695-3 0  9993
2 51807  53.2204  92.7190 0001392  58.9342 191.9170 15.73223880  2103
STARLINK-3609           
1 51808U 22017AS  22067.16667824 -.00000048  00000+0  40612-5 0  9991
2 51808  53.2191  91.4769 0001013  57.5377 172.9637 15.73278054  2885
STARLINK-3607           
1 51809U 22017AT  22067.25002315  .00021956  00000+0  16050-3 0  9997
2 51809  53.2205  91.0695 0001497  59.1047 281.3728 15.73192298  2908
STARLINK-3613           
1 51810U 22017AU  22066.91667824 -.00063223  00000+0 -44820-3 0  9994
2 51810  53.2189  92.7105 0001540  47.8061 207.4826 15.73263207  2114
STARLINK-3569           
1 51811U 22017AV  22067.16667824 -.00061119  00000+0 -43242-3 0  9992
2 51811  53.2187  91.4777 0001357  67.9441 162.0566 15.73296713  2884
STARLINK-3610           
1 51812U 22017AW  22066.91667824  .00113396  00000+0  80102-3 0  9994
2 51812  53.2186  92.7097 0001526  74.5211 181.2176 15.73214124  2123
STARLINK-3552           
1 51813U 22017AX  22067.16667824  .00031317  00000+0  22651-3 0  9990
2 51813  53.2208  91.4749 0000906  63.9900 167.3787 15.73221805  2887
STARLINK-3599           
1 51814U 22017AY  22067.16667824  .00030226  00000+0  21803-3 0  9997
2 51814  53.2192  91.4711 0001085  57.8362 175.8103 15.73304721  2887
STARLINK-3604           
1 51815U 22017AZ  22067.16667824 -.00058176  00000+0 -41184-3 0  9998
2 51815  53.2207  91.4708 0001637  54.8201 178.4775 15.73261875  2889
STARLINK-3603           
1 51816U 22017BA  22067.16667824  .00052178  00000+0  37292-3 0  9998
2 51816  53.2191  91.4696 0001020  59.8301 174.4703 15.73260681  2937
STARLINK-3596           
1 51817U 22017BB  22066.91667824 -.00292894  00000+0 -11091-2 0  9992
2 51817  53.2172  92.2231 0005358 275.8732 225.0195 15.87566509  2118
FALCON 9 DEB            
1 51818U 22017BC  22067.07863325  .00186173  23686-4  61472-3 0  9994
2 51818  53.2301  91.3710 0006056 317.0396  43.0158 15.90075724  1659
FALCON 9 DEB            
1 51819U 22017BD  22067.07585255  .00213788  27866-4  68355-3 0  9992
2 51819  53.2287  91.3515 0003798 299.6623  60.4026 15.90680887  1653
FALCON 9 DEB            
1 51820U 22017BE  22067.06920967  .00227514  30400-4  68345-3 0  9995
2 51820  53.2261  91.3031 0007898 279.5282  80.4854 15.91828723  1658
FALCON 9 DEB            
1 51821U 22017BF  22067.06698782  .00216920  28701-4  64278-3 0  9994
2 51821  53.2242  91.2849 0006691 259.2372 100.7903 15.92121500  1650
L-SAR 01B               
1 51822U 22018A   22067.17266524  .00000939  00000+0  10717-3 0  9990
2 51822  97.8111  75.9886 0001699 102.6788 257.4626 14.88417555  1367
CZ-4C R/B               
1 51823U 22018B   22066.92153237  .00007756  00000+0  28622-3 0  9997
2 51823  97.8614  76.2816 0134319  10.5727 349.8306 15.19920159  1364
2022-019A               
1 51824U 22019A   22067.20222303  .00003038  00000+0  19765-3 0  9999
2 51824  97.5212 143.8184 0019628 236.8435 180.2787 15.08572535  1379
2022-019B               
1 51825U 22019B   22067.13988921  .00002632  00000+0  17071-3 0  9994
2 51825  97.5205 143.7572 0017613 233.2538 213.9796 15.08829632  1354
2022-019C               
1 51826U 22019C   22067.13877279  .00003402  00000+0  21839-3 0  9991
2 51826  97.5195 143.7570 0016899 234.7822 212.4437 15.09023831  1352
2022-019D               
1 51827U 22019D   22067.13966023  .00002538  00000+0  16370-3 0  9991
2 51827  97.5210 143.7618 0015602 234.0491 220.6635 15.09099156  1354
2022-019E               
1 51828U 22019E   22067.13955584  .00003166  00000+0  20300-3 0  9998
2 51828  97.5202 143.7614 0016460 236.0486 218.8417 15.09127116  1356
2022-019F               
1 51829U 22019F   22067.15804008  .00004476  00000+0  28480-3 0  9997
2 51829  97.5250 143.7872 0015731 236.0418 321.2094 15.09200552  1357
2022-019G               
1 51830U 22019G   22067.15875338  .00004613  00000+0  29327-3 0  9997
2 51830  97.5186 143.7749 0016660 235.0695 326.1305 15.09204134  1357
2022-019H               
1 51831U 22019H   22067.15691472  .00003089  00000+0  19750-3 0  9998
2 51831  97.5213 143.7770 0016883 244.3899 308.5550 15.09243513  1359
2022-019J               
1 51832U 22019J   22067.13736345  .00002772  00000+0  17760-3 0  9993
2 51832  97.5199 143.7590 0017236 242.5155 204.7052 15.09254106  1355
2022-019K               
1 51833U 22019K   22067.13553883  .00003893  00000+0  24584-3 0  9995
2 51833  97.5185 143.7595 0014891 239.2683 207.8844 15.09569608  1358
2022-019L               
1 51834U 22019L   22067.13548197  .00003042  00000+0  19294-3 0  9996
2 51834  97.5215 143.7705 0015486 242.3325 204.8464 15.09571894  1350
2022-019M               
1 51835U 22019M   22067.15518027  .00003125  00000+0  19803-3 0  9996
2 51835  97.5212 143.7786 0015522 242.8418 311.5071 15.09578474  1357
2022-019N               
1 51836U 22019N   22067.19513828  .00004655  00000+0  29261-3 0  9993
2 51836  97.5204 143.8232 0015322 242.6608 170.0210 15.09633236  1365
2022-019P               
1 51837U 22019P   22067.13456598  .00004601  00000+0  28798-3 0  9993
2 51837  97.5156 143.7571 0014539 244.2534 204.8377 15.09798699  1356
2022-019Q               
1 51838U 22019Q   22067.26661938  .00003182  00000+0  20023-3 0  9990
2 51838  97.5212 143.8991 0014401 242.1643 205.7917 15.09835443  1374
2022-019R               
1 51839U 22019R   22067.13547686  .00003173  00000+0  19968-3 0  9996
2 51839  97.5195 143.7637 0014308 242.2915 213.4679 15.09839564  1357
2022-019S               
1 51840U 22019S   22067.13446449  .00003132  00000+0  19702-3 0  9994
2 51840  97.5202 143.7632 0014240 240.6578 210.3663 15.09863091  1356
2022-019T               
1 51841U 22019T   22067.13486693  .00003095  00000+0  19441-3 0  9998
2 51841  97.5200 143.7681 0014054 240.0222 215.2283 15.09926159  1359
2022-019U               
1 51842U 22019U   22067.14738352  .00006269  00000+0  25844-3 0  9992
2 51842  97.5672 144.0153 0071650 181.6447  12.7375 15.22074812  1363
2022-019V               
1 51843U 22019V   22067.13306573  .00001979  00000+0  12553-3 0  9994
2 51843  97.5240 143.7717 0014417 247.0495 200.7272 15.09987945  1354
2022-019W               
1 51844U 22019W   22067.13894624  .00003073  00000+0  19725-3 0  9999
2 51844  97.5196 143.7639 0017444 244.4595 206.2331 15.09098108  1253
2022-019X               
1 51845U 22019X   22067.13482034  .00003970  00000+0  24973-3 0  9995
2 51845  97.5206 143.7661 0015175 242.0313 205.1543 15.09691451  1277
2022-019Y               
1 51846U 22019Y   22067.13477473  .00003103  00000+0  19589-3 0  9992
2 51846  97.5188 143.7690 0015022 240.1466 208.3308 15.09731774  1275
STRIX-BETA              
1 51847U 22020A   22067.08761600  .00002538  00000+0  20332-3 0  9996
2 51847  97.7756 120.8627 0012858 267.8826  92.1014 15.01007322  1084
ELECTRON KICK STAGE R/B 
1 51848U 22020B   22066.88154860  .00006777  00000+0  33243-3 0  9992
2 51848  97.0921 119.4141 0060522   6.9968 353.2194 15.16776693  1065
ELECTRON R/B            
1 51849U 22020C   22067.23780823  .01821969  22984-5  12846-2 0  9992
2 51849  97.7249 121.6313 0240895 196.4639 162.8708 15.77200472  1143
2022-021A               
1 51850U 22021A   22063.38462291 -.00000170  00000+0  00000+0 0  9991
2 51850   9.3026 334.2785 4593342 180.0467 178.8216  1.80046017    54
2022-021B               
1 51851U 22022B   22061.16528521 -.00000182  00000+0  00000+0 0  9999
2 51851   9.3750 334.5324 4632108 179.5801 175.9040  1.80759695    01
STARLINK A              
1 51852U 22022A   22066.83334491 -.00881354  00000+0 -47937-2 0  9992
2 51852  53.2174 123.3742 0001120  75.5017  96.1659 15.81509683  1931
STARLINK B              
1 51853U 22022B   22066.83334491 -.00881241  00000+0 -47980-2 0  9996
2 51853  53.2174 123.3751 0001152  68.4592 102.9241 15.81487236  1882
STARLINK C              
1 51854U 22022C   22066.83334491 -.00881514  00000+0 -47897-2 0  9997
2 51854  53.2173 123.3736 0001117  83.3129  88.6443 15.81531807  1932
